NORAD_CAT_ID,OBJECT_NAME,OBJECT_TYPE,EPOCH,MEAN_MOTION,ECCENTRICITY,INCLINATION,RA_OF_ASC_NODE,ARG_OF_PERICENTER,MEAN_ANOMALY,BSTAR,MEAN_MOTION_DOT,MEAN_MOTION_DDOT,TLE_LINE0,TLE_LINE1,TLE_LINE2,SEMIMAJOR_AXIS,PERIOD,APOGEE,PERIGEE,DECAYED
52836.0,STARLINK-4043,PAYLOAD,2024-06-25 15:38:17,15.07204743,0.0001184,53.2181,306.813,83.479,276.6336,3.6532e-05,2.73e-06,0.0,0 STARLINK-4043,1 52836U 22062G   24177.65159249  .00000273  00000-0  36532-4 0  9993,2 52836  53.2181 306.8130 0001184  83.4790 276.6336 15.07204743111876,6922.883,95.541,545.568,543.929,0.0
52836.0,STARLINK-4043,PAYLOAD,2024-06-26 04:22:11,15.07208898,0.0001082,53.2173,304.4405,90.2447,269.8668,0.0001018,1.267e-05,0.0,0 STARLINK-4043,1 52836U 22062G   24178.18208285  .00001267  00000-0  10180-3 0  9991,2 52836  53.2173 304.4405 0001082  90.2447 269.8668 15.07208898111954,6922.871,95.541,545.485,543.986,0.0
52836.0,STARLINK-4043,PAYLOAD,2024-06-27 12:11:59,15.0720214,0.000147,53.2192,298.5093,118.476,241.6379,-3.4896e-05,-8.14e-06,0.0,0 STARLINK-4043,1 52836U 22062G   24179.50833333 -.00000814  00000-0 -34896-4 0  9996,2 52836  53.2192 298.5093 0001470 118.4760 241.6379 15.07202140112157,6922.891,95.541,545.774,543.739,0.0
52836.0,STARLINK-4043,PAYLOAD,2024-06-27 15:22:58,15.07201019,0.0001181,53.2182,297.9124,97.1417,262.9709,-1.7646e-05,-5.52e-06,0.0,0 STARLINK-4043,1 52836U 22062G   24179.64095775 -.00000552  00000-0 -17646-4 0  9994,2 52836  53.2182 297.9124 0001181  97.1417 262.9709 15.07201019112174,6922.895,95.541,545.577,543.942,0.0
52836.0,STARLINK-4043,PAYLOAD,2024-06-28 13:39:48,15.07210832,0.0001226,53.2156,293.7496,64.3599,295.7519,0.00016802,2.276e-05,0.0,0 STARLINK-4043,1 52836U 22062G   24180.56931602  .00002276  00000-0  16802-3 0  9990,2 52836  53.2156 293.7496 0001226  64.3599 295.7519 15.07210832112310,6922.865,95.541,545.578,543.881,0.0
52836.0,STARLINK-4043,PAYLOAD,2024-06-28 15:15:16,15.07225437,0.0001003,53.2167,293.4522,107.9343,252.1757,0.00030013,4.291e-05,0.0,0 STARLINK-4043,1 52836U 22062G   24180.63561320  .00004291  00000-0  30013-3 0  9993,2 52836  53.2167 293.4522 0001003 107.9343 252.1757 15.07225437112322,6922.82,95.54,545.379,543.991,0.0
52836.0,STARLINK-4043,PAYLOAD,2024-06-29 13:32:10,15.0719118,0.0001058,53.2152,289.2987,105.1146,254.9963,-8.3585e-06,-4.1e-06,0.0,0 STARLINK-4043,1 52836U 22062G   24181.56400820 -.00000410  00000-0 -83585-5 0  9998,2 52836  53.2152 289.2987 0001058 105.1146 254.9963 15.07191180112466,6922.925,95.542,545.522,544.057,0.0
52836.0,STARLINK-4043,PAYLOAD,2024-06-29 16:43:08,15.07195189,0.0001358,53.2137,288.7032,116.8789,243.2341,-5.5138e-05,-1.122e-05,0.0,0 STARLINK-4043,1 52836U 22062G   24181.69662566 -.00001122  00000-0 -55138-4 0  9992,2 52836  53.2137 288.7032 0001358 116.8789 243.2341 15.07195189112485,6922.912,95.542,545.718,543.837,0.0
52836.0,STARLINK-4043,PAYLOAD,2024-06-30 00:40:34,15.07210221,0.0001337,53.2168,287.2192,108.5274,251.5863,0.00013819,1.821e-05,0.0,0 STARLINK-4043,1 52836U 22062G   24182.02817772  .00001821  00000-0  13819-3 0  9994,2 52836  53.2168 287.2192 0001337 108.5274 251.5863 15.07210221112536,6922.866,95.541,545.657,543.806,0.0
52836.0,STARLINK-4043,PAYLOAD,2024-06-30 13:24:22,15.07385058,0.00015,53.2155,284.8418,103.3899,256.7259,0.0033215,0.0005089,0.0,0 STARLINK-4043,1 52836U 22062G   24182.55859431  .00050890  00000-0  33215-2 0  9991,2 52836  53.2155 284.8418 0001500 103.3899 256.7259 15.07385058112610,6922.331,95.53,545.234,543.158,0.0
52836.0,STARLINK-4043,PAYLOAD,2024-07-01 13:15:53,15.07994436,0.0001384,53.2168,280.3848,111.806,248.3079,0.0093829,0.00148737,0.0,0 STARLINK-4043,1 52836U 22062G   24183.55270816  .00148737  00000-0  93829-2 0  9991,2 52836  53.2168 280.3848 0001384 111.8060 248.3079 15.07994436112765,6920.466,95.491,543.289,541.373,0.0
52836.0,STARLINK-4043,PAYLOAD,2024-07-01 22:00:01,15.08845922,0.0001414,53.2161,278.7534,98.2328,79.3486,-0.002121,-0.00033891,0.0,0 STARLINK-4043,1 52836U 22062G   24183.91668981 -.00033891  00000-0 -21210-2 0  9996,2 52836  53.2161 278.7534 0001414  98.2328  79.3486 15.08845922112816,6917.862,95.437,540.705,538.749,0.0
52836.0,STARLINK-4043,PAYLOAD,2024-07-02 14:00:01,15.08843318,0.0001431,53.2165,275.7615,86.0568,114.6456,-0.0012216,-0.00019679,0.0,0 STARLINK-4043,1 52836U 22062G   24184.58334491 -.00019679  00000-0 -12216-2 0  9990,2 52836  53.2165 275.7615 0001431  86.0568 114.6456 15.08843318112915,6917.87,95.437,540.725,538.745,0.0
52836.0,STARLINK-4043,PAYLOAD,2024-07-02 22:00:00,15.08834054,0.0001316,53.2163,274.2642,83.734,128.5651,-0.0013211,-0.00021248,0.0,0 STARLINK-4043,1 52836U 22062G   24184.91667824 -.00021248  00000-0 -13211-2 0  9997,2 52836  53.2163 274.2642 0001316  83.7340 128.5651 15.08834054  5853,6917.899,95.438,540.674,538.853,0.0
52836.0,STARLINK-4043,PAYLOAD,2024-07-03 14:00:01,15.08846233,0.0001331,53.2163,271.2727,76.1736,159.281,-0.00080034,-0.00013005,0.0,0 STARLINK-4043,1 52836U 22062G   24185.58334491 -.00013005  00000-0 -80034-3 0  9992,2 52836  53.2163 271.2727 0001331  76.1736 159.2810 15.08846233113069,6917.861,95.437,540.647,538.806,0.0
52836.0,STARLINK-4043,PAYLOAD,2024-07-03 22:00:00,15.08838238,0.0001253,53.216,269.7752,73.4782,173.5833,-0.001382,-0.00022214,0.0,0 STARLINK-4043,1 52836U 22062G   24185.91667824 -.00022214  00000-0 -13820-2 0  9998,2 52836  53.2160 269.7752 0001253  73.4782 173.5833 15.08838238  5699,6917.886,95.438,540.618,538.884,0.0
52836.0,STARLINK-4043,PAYLOAD,2024-07-04 14:00:01,15.08846441,0.0001333,53.2157,266.784,70.1218,200.1055,-0.00092034,-0.00014908,0.0,0 STARLINK-4043,1 52836U 22062G   24186.58334491 -.00014908  00000-0 -92034-3 0  9999,2 52836  53.2157 266.7840 0001333  70.1218 200.1055 15.08846441  5796,6917.861,95.437,540.648,538.804,0.0
52836.0,STARLINK-4043,PAYLOAD,2024-07-04 22:00:01,15.08839131,0.0001228,53.2153,265.2864,75.6307,206.2572,-0.0010033,-0.00016219,0.0,0 STARLINK-4043,1 52836U 22062G   24186.91668981 -.00016219  00000-0 -10033-2 0  9995,2 52836  53.2153 265.2864 0001228  75.6307 206.2572 15.08839131113265,6917.883,95.438,540.598,538.899,0.0
52836.0,STARLINK-4043,PAYLOAD,2024-07-05 12:39:13,15.08842588,0.0001484,53.2164,262.5443,74.5471,285.5684,0.00017897,2.562e-05,0.0,0 STARLINK-4043,1 52836U 22062G   24187.52724449  .00002562  00000-0  17897-3 0  9995,2 52836  53.2164 262.5443 0001484  74.5471 285.5684 15.08842588113369,6917.872,95.437,540.764,538.711,0.0
52836.0,STARLINK-4043,PAYLOAD,2024-07-05 22:11:32,15.08851847,0.0001491,53.2163,260.7605,75.8498,284.2659,0.00029469,4.407e-05,0.0,0 STARLINK-4043,1 52836U 22062G   24187.92467954  .00004407  00000-0  29469-3 0  9992,2 52836  53.2163 260.7605 0001491  75.8498 284.2659 15.08851847113422,6917.844,95.437,540.741,538.678,0.0
52836.0,STARLINK-4043,PAYLOAD,2024-07-06 04:33:05,15.08833619,0.0001503,53.2164,259.5724,79.9845,280.1317,2.3124e-05,8e-07,0.0,0 STARLINK-4043,1 52836U 22062G   24188.18964697  .00000080  00000-0  23124-4 0  9993,2 52836  53.2164 259.5724 0001503  79.9845 280.1317 15.08833619113463,6917.9,95.438,540.805,538.725,0.0
52836.0,STARLINK-4043,PAYLOAD,2024-07-06 12:30:01,15.08837559,0.0001343,53.2152,258.085,79.8811,280.2333,1.7051e-05,-1.7e-07,0.0,0 STARLINK-4043,1 52836U 22062G   24188.52084496 -.00000017  00000-0  17051-4 0  9994,2 52836  53.2152 258.0850 0001343  79.8811 280.2333 15.08837559113510,6917.888,95.438,540.682,538.824,0.0
52836.0,STARLINK-4043,PAYLOAD,2024-07-06 22:02:19,15.08843948,0.0001378,53.215,256.3011,80.3879,279.7269,0.00018378,2.638e-05,0.0,0 STARLINK-4043,1 52836U 22062G   24188.91828350  .00002638  00000-0  18378-3 0  9994,2 52836  53.2150 256.3011 0001378  80.3879 279.7269 15.08843948113573,6917.868,95.437,540.687,538.78,0.0
52836.0,STARLINK-4043,PAYLOAD,2024-07-07 10:45:25,15.08839941,0.0001374,53.215,253.9229,80.0831,280.0316,6.7069e-05,7.8e-06,0.0,0 STARLINK-4043,1 52836U 22062G   24189.44820671  .00000780  00000-0  67069-4 0  9999,2 52836  53.2150 253.9229 0001374  80.0831 280.0316 15.08839941113653,6917.881,95.438,540.696,538.795,0.0
52836.0,STARLINK-4043,PAYLOAD,2024-07-08 10:36:12,15.08842105,0.0001482,53.2162,249.4608,92.3098,267.8064,0.00015949,2.251e-05,0.0,0 STARLINK-4043,1 52836U 22062G   24190.44180665  .00002251  00000-0  15949-3 0  9997,2 52836  53.2162 249.4608 0001482  92.3098 267.8064 15.08842105113804,6917.874,95.437,540.764,538.714,0.0
52836.0,STARLINK-4043,PAYLOAD,2024-07-09 04:05:26,15.08842268,0.0001331,53.215,246.1893,92.9511,267.1634,0.00015373,2.16e-05,0.0,0 STARLINK-4043,1 52836U 22062G   24191.17044580  .00002160  00000-0  15373-3 0  9993,2 52836  53.2150 246.1893 0001331  92.9511 267.1634 15.08842268113918,6917.873,95.437,540.659,538.818,0.0
52836.0,STARLINK-4043,PAYLOAD,2024-07-09 10:26:59,15.08839429,0.0001359,53.2152,244.9999,91.9941,268.1206,8.3002e-05,1.033e-05,0.0,0 STARLINK-4043,1 52836U 22062G   24191.43540687  .00001033  00000-0  83002-4 0  9994,2 52836  53.2152 244.9999 0001359  91.9941 268.1206 15.08839429113954,6917.882,95.438,540.687,538.807,0.0
52836.0,STARLINK-4043,PAYLOAD,2024-07-10 10:17:46,15.08836809,0.0001383,53.2166,240.5403,93.6388,266.4762,5.25e-05,5.48e-06,0.0,0 STARLINK-4043,1 52836U 22062G   24192.42901018  .00000548  00000-0  52500-4 0  9992,2 52836  53.2166 240.5403 0001383  93.6388 266.4762 15.08836809114107,6917.89,95.438,540.712,538.798,0.0
52836.0,STARLINK-4043,PAYLOAD,2024-07-11 11:43:56,15.0883835,0.0001392,53.2162,235.783,93.7324,266.3827,9.7686e-05,1.267e-05,0.0,0 STARLINK-4043,1 52836U 22062G   24193.48885006  .00001267  00000-0  97686-4 0  9990,2 52836  53.2162 235.7830 0001392  93.7324 266.3827 15.08838350114265,6917.885,95.438,540.713,538.787,0.0
52836.0,STARLINK-4043,PAYLOAD,2024-07-12 11:34:43,15.08840134,0.000143,53.2161,231.3222,86.2227,273.8929,0.00013414,1.848e-05,0.0,0 STARLINK-4043,1 52836U 22062G   24194.48245113  .00001848  00000-0  13414-3 0  9991,2 52836  53.2161 231.3222 0001430  86.2227 273.8929 15.08840134114419,6917.88,95.438,540.734,538.756,0.0
